EUTELSAT QUANTUM        
1 49056U 21069B   25346.20739174  .00000135  00000+0  00000+0 0  9992
2 49056   0.0210  35.8102 0003645 238.2566 289.4509  1.00272439 16055
EUTELSAT KONNECT VHTS   
1 53765U 22110A   25346.13421302  .00000027  00000+0  00000+0 0  9995
2 53765   0.0639 101.3299 0002492 139.4387 251.3532  1.00271767  4953
EUTELSAT HOTBIRD 13F    
1 54048U 22134A   25345.98400733  .00000096  00000+0  00000+0 0  9999
2 54048   0.0480 293.1086 0002241  64.7327  90.3432  1.00269374 11502
EUTELSAT HOTBIRD 13G    
1 54225U 22146A   25346.27887916  .00000097  00000+0  00000+0 0  9995
2 54225   0.0478 233.9518 0001816 307.8257  12.8350  1.00271187  5593
EUTELSAT 10B            
1 54259U 22157A   25346.13559970  .00000077  00000+0  00000+0 0  9993
2 54259   0.0602  99.4652 0000667  52.9075 347.4998  1.00269595 11156
EUTELSAT 36D            
1 59346U 24059A   25346.21214539  .00000000  00000+0  00000+0 0  9992
2 59346   0.0186 351.1584 0000444   1.6497 200.5666  1.00269505  6278
